CCSDS_OMM_VERS = 2.0
CREATION_DATE  = 
ORIGINATOR     = 

OBJECT_NAME    = AQUA
OBJECT_ID      = 2002-022A
CENTER_NAME    = EARTH
REF_FRAME      = TEME
TIME_SYSTEM    = UTC
MEAN_ELEMENT_THEORY = SGP/SGP4

EPOCH          = 2026-03-28T05:47:59.047296
MEAN_MOTION    = 14.62018379
ECCENTRICITY   = .00011053
INCLINATION    = 98.4205
RA_OF_ASC_NODE = 54.9489
ARG_OF_PERICENTER = 117.9900
MEAN_ANOMALY   = 355.0392

EPHEMERIS_TYPE = 0
CLASSIFICATION_TYPE = U
NORAD_CAT_ID   = 27424
ELEMENT_SET_NO = 999
REV_AT_EPOCH   = 27144
BSTAR          = .22045041E-3
MEAN_MOTION_DOT = .1056E-4
MEAN_MOTION_DDOT = 0

CCSDS_OMM_VERS = 2.0
CREATION_DATE  = 
ORIGINATOR     = 

OBJECT_NAME    = CZ-4B R/B
OBJECT_ID      = 2002-024C
CENTER_NAME    = EARTH
REF_FRAME      = TEME
TIME_SYSTEM    = UTC
MEAN_ELEMENT_THEORY = SGP/SGP4

EPOCH          = 2026-03-28T04:22:07.781664
MEAN_MOTION    = 14.14550891
ECCENTRICITY   = .00495372
INCLINATION    = 98.8799
RA_OF_ASC_NODE = 140.4924
ARG_OF_PERICENTER = 331.5731
MEAN_ANOMALY   = 97.9304

EPHEMERIS_TYPE = 0
CLASSIFICATION_TYPE = U
NORAD_CAT_ID   = 27432
ELEMENT_SET_NO = 999
REV_AT_EPOCH   = 23185
BSTAR          = .43967707E-4
MEAN_MOTION_DOT = .41E-6
MEAN_MOTION_DDOT = 0

CCSDS_OMM_VERS = 2.0
CREATION_DATE  = 
ORIGINATOR     = 

OBJECT_NAME    = MIDORI II (ADEOS-II)
OBJECT_ID      = 2002-056A
CENTER_NAME    = EARTH
REF_FRAME      = TEME
TIME_SYSTEM    = UTC
MEAN_ELEMENT_THEORY = SGP/SGP4

EPOCH          = 2026-03-27T20:45:22.573440
MEAN_MOTION    = 14.29298391
ECCENTRICITY   = .0000795
INCLINATION    = 98.7799
RA_OF_ASC_NODE = 45.4716
ARG_OF_PERICENTER = 21.2151
MEAN_ANOMALY   = 338.9063

EPHEMERIS_TYPE = 0
CLASSIFICATION_TYPE = U
NORAD_CAT_ID   = 27597
ELEMENT_SET_NO = 999
REV_AT_EPOCH   = 21289
BSTAR          = .1411E-3
MEAN_MOTION_DOT = .314E-5
MEAN_MOTION_DDOT = 0

CCSDS_OMM_VERS = 2.0
CREATION_DATE  = 
ORIGINATOR     = 

OBJECT_NAME    = H-2A R/B
OBJECT_ID      = 2002-056E
CENTER_NAME    = EARTH
REF_FRAME      = TEME
TIME_SYSTEM    = UTC
MEAN_ELEMENT_THEORY = SGP/SGP4

EPOCH          = 2026-03-28T02:54:44.263296
MEAN_MOTION    = 14.33772617
ECCENTRICITY   = .00713465
INCLINATION    = 98.3233
RA_OF_ASC_NODE = 46.7887
ARG_OF_PERICENTER = 106.3607
MEAN_ANOMALY   = 264.9494

EPHEMERIS_TYPE = 0
CLASSIFICATION_TYPE = U
NORAD_CAT_ID   = 27601
ELEMENT_SET_NO = 999
REV_AT_EPOCH   = 21675
BSTAR          = .11728618E-3
MEAN_MOTION_DOT = .294E-5
MEAN_MOTION_DDOT = 0

CCSDS_OMM_VERS = 2.0
CREATION_DATE  = 
ORIGINATOR     = 

OBJECT_NAME    = CZ-4B R/B
OBJECT_ID      = 2003-049C
CENTER_NAME    = EARTH
REF_FRAME      = TEME
TIME_SYSTEM    = UTC
MEAN_ELEMENT_THEORY = SGP/SGP4

EPOCH          = 2026-03-28T05:25:12.053280
MEAN_MOTION    = 14.55036470
ECCENTRICITY   = .00482433
INCLINATION    = 98.6893
RA_OF_ASC_NODE = 82.8603
ARG_OF_PERICENTER = 173.7812
MEAN_ANOMALY   = 186.3993

EPHEMERIS_TYPE = 0
CLASSIFICATION_TYPE = U
NORAD_CAT_ID   = 28059
ELEMENT_SET_NO = 999
REV_AT_EPOCH   = 18929
BSTAR          = .99100554E-4
MEAN_MOTION_DOT = .382E-5
MEAN_MOTION_DDOT = 0

CCSDS_OMM_VERS = 2.0
CREATION_DATE  = 
ORIGINATOR     = 

OBJECT_NAME    = CZ-2C R/B
OBJECT_ID      = 2004-012C
CENTER_NAME    = EARTH
REF_FRAME      = TEME
TIME_SYSTEM    = UTC
MEAN_ELEMENT_THEORY = SGP/SGP4

EPOCH          = 2026-03-28T03:27:59.050080
MEAN_MOTION    = 15.66741264
ECCENTRICITY   = .00132932
INCLINATION    = 97.7185
RA_OF_ASC_NODE = 154.2126
ARG_OF_PERICENTER = 235.4780
MEAN_ANOMALY   = 124.5225

EPHEMERIS_TYPE = 0
CLASSIFICATION_TYPE = U
NORAD_CAT_ID   = 28222
ELEMENT_SET_NO = 999
REV_AT_EPOCH   = 20716
BSTAR          = .60221314E-3
MEAN_MOTION_DOT = .6383E-3
MEAN_MOTION_DDOT = 0

CCSDS_OMM_VERS = 2.0
CREATION_DATE  = 
ORIGINATOR     = 

OBJECT_NAME    = SL-16 R/B
OBJECT_ID      = 2004-021B
CENTER_NAME    = EARTH
REF_FRAME      = TEME
TIME_SYSTEM    = UTC
MEAN_ELEMENT_THEORY = SGP/SGP4

EPOCH          = 2026-03-28T06:23:53.245536
MEAN_MOTION    = 14.14594634
ECCENTRICITY   = .00049408
INCLINATION    = 71.0007
RA_OF_ASC_NODE = 193.5079
ARG_OF_PERICENTER = 347.1173
MEAN_ANOMALY   = 12.9822

EPHEMERIS_TYPE = 0
CLASSIFICATION_TYPE = U
NORAD_CAT_ID   = 28353
ELEMENT_SET_NO = 999
REV_AT_EPOCH   = 12546
BSTAR          = .11344053E-3
MEAN_MOTION_DOT = .17E-5
MEAN_MOTION_DDOT = 0

CCSDS_OMM_VERS = 2.0
CREATION_DATE  = 
ORIGINATOR     = 

OBJECT_NAME    = CZ-4B R/B
OBJECT_ID      = 2004-035C
CENTER_NAME    = EARTH
REF_FRAME      = TEME
TIME_SYSTEM    = UTC
MEAN_ELEMENT_THEORY = SGP/SGP4

EPOCH          = 2026-03-28T02:24:06.861024
MEAN_MOTION    = 15.29375596
ECCENTRICITY   = .0030005
INCLINATION    = 97.3475
RA_OF_ASC_NODE = 121.1233
ARG_OF_PERICENTER = 262.6530
MEAN_ANOMALY   = 97.1300

EPHEMERIS_TYPE = 0
CLASSIFICATION_TYPE = U
NORAD_CAT_ID   = 28415
ELEMENT_SET_NO = 999
REV_AT_EPOCH   = 18272
BSTAR          = .29288E-3
MEAN_MOTION_DOT = .838E-4
MEAN_MOTION_DDOT = 0

CCSDS_OMM_VERS = 2.0
CREATION_DATE  = 
ORIGINATOR     = 

OBJECT_NAME    = CZ-2C R/B
OBJECT_ID      = 2004-046B
CENTER_NAME    = EARTH
REF_FRAME      = TEME
TIME_SYSTEM    = UTC
MEAN_ELEMENT_THEORY = SGP/SGP4

EPOCH          = 2026-03-28T06:39:17.740224
MEAN_MOTION    = 14.26998576
ECCENTRICITY   = .01405922
INCLINATION    = 98.1977
RA_OF_ASC_NODE = 1.1032
ARG_OF_PERICENTER = 99.8233
MEAN_ANOMALY   = 261.8856

EPHEMERIS_TYPE = 0
CLASSIFICATION_TYPE = U
NORAD_CAT_ID   = 28480
ELEMENT_SET_NO = 999
REV_AT_EPOCH   = 11115
BSTAR          = .66262586E-4
MEAN_MOTION_DOT = .139E-5
MEAN_MOTION_DDOT = 0

CCSDS_OMM_VERS = 2.0
CREATION_DATE  = 
ORIGINATOR     = 

OBJECT_NAME    = ARIANE 5 R/B
OBJECT_ID      = 2004-049H
CENTER_NAME    = EARTH
REF_FRAME      = TEME
TIME_SYSTEM    = UTC
MEAN_ELEMENT_THEORY = SGP/SGP4

EPOCH          = 2026-03-27T22:57:34.327584
MEAN_MOTION    = 14.85297732
ECCENTRICITY   = .00829337
INCLINATION    = 98.2655
RA_OF_ASC_NODE = 256.1011
ARG_OF_PERICENTER = 292.2020
MEAN_ANOMALY   = 67.0410

EPHEMERIS_TYPE = 0
CLASSIFICATION_TYPE = U
NORAD_CAT_ID   = 28499
ELEMENT_SET_NO = 999
REV_AT_EPOCH   = 14850
BSTAR          = .94695927E-4
MEAN_MOTION_DOT = .799E-5
MEAN_MOTION_DDOT = 0

CCSDS_OMM_VERS = 2.0
CREATION_DATE  = 
ORIGINATOR     = 

OBJECT_NAME    = CZ-2D R/B
OBJECT_ID      = 2005-024B
CENTER_NAME    = EARTH
REF_FRAME      = TEME
TIME_SYSTEM    = UTC
MEAN_ELEMENT_THEORY = SGP/SGP4

EPOCH          = 2026-03-27T23:30:12.968928
MEAN_MOTION    = 15.61793684
ECCENTRICITY   = .00025958
INCLINATION    = 97.3587
RA_OF_ASC_NODE = 102.8182
ARG_OF_PERICENTER = 342.7816
MEAN_ANOMALY   = 17.3353

EPHEMERIS_TYPE = 0
CLASSIFICATION_TYPE = U
NORAD_CAT_ID   = 28738
ELEMENT_SET_NO = 999
REV_AT_EPOCH   = 14263
BSTAR          = .52171305E-3
MEAN_MOTION_DOT = .45198E-3
MEAN_MOTION_DDOT = 0

CCSDS_OMM_VERS = 2.0
CREATION_DATE  = 
ORIGINATOR     = 

OBJECT_NAME    = ALOS (DAICHI)
OBJECT_ID      = 2006-002A
CENTER_NAME    = EARTH
REF_FRAME      = TEME
TIME_SYSTEM    = UTC
MEAN_ELEMENT_THEORY = SGP/SGP4

EPOCH          = 2026-03-28T03:44:06.270432
MEAN_MOTION    = 14.69864641
ECCENTRICITY   = .00008546
INCLINATION    = 98.1247
RA_OF_ASC_NODE = 43.0227
ARG_OF_PERICENTER = 105.7417
MEAN_ANOMALY   = 254.3883

EPHEMERIS_TYPE = 0
CLASSIFICATION_TYPE = U
NORAD_CAT_ID   = 28931
ELEMENT_SET_NO = 999
REV_AT_EPOCH   = 7619
BSTAR          = .2332275E-3
MEAN_MOTION_DOT = .1345E-4
MEAN_MOTION_DDOT = 0

